STARLINK-31410          
1 59179U 24045B   26068.45320963 -.00000150  00000+0  40978-5 0  9999
2 59179  43.0060  94.0186 0001537 287.7570  72.3113 15.27577428113129
STARLINK-36554          
1 67502U 26012K   26067.71268370  .00032833  00000+0  11969-2 0  9992
2 67502  42.9934 319.8184 0000695 339.2059  20.8765 15.27591469  7619
